[{"OBJECT_NAME":"DIRECTV 11","OBJECT_ID":"2008-013A","EPOCH":"2026-04-27T11:49:28.738272","MEAN_MOTION":1.00270676,"ECCENTRICITY":2.28e-5,"INCLINATION":0.0108,"RA_OF_ASC_NODE":120.4926,"ARG_OF_PERICENTER":236.3435,"MEAN_ANOMALY":296.8178,"EPHEMERIS_TYPE":0,"CLASSIFICATION_TYPE":"U","NORAD_CAT_ID":32729,"ELEMENT_SET_NO":999,"REV_AT_EPOCH":4508,"BSTAR":0,"MEAN_MOTION_DOT":-1.35e-6,"MEAN_MOTION_DDOT":0},{"OBJECT_NAME":"ICO G1","OBJECT_ID":"2008-016A","EPOCH":"2026-04-27T11:35:33.091296","MEAN_MOTION":1.00272481,"ECCENTRICITY":0.0002409,"INCLINATION":5.5209,"RA_OF_ASC_NODE":36.2443,"ARG_OF_PERICENTER":347.9931,"MEAN_ANOMALY":272.2782,"EPHEMERIS_TYPE":0,"CLASSIFICATION_TYPE":"U","NORAD_CAT_ID":32763,"ELEMENT_SET_NO":999,"REV_AT_EPOCH":6603,"BSTAR":0,"MEAN_MOTION_DOT":-1.79e-6,"MEAN_MOTION_DDOT":0},{"OBJECT_NAME":"VINASAT-1","OBJECT_ID":"2008-018A","EPOCH":"2026-04-27T11:23:26.958912","MEAN_MOTION":1.00271366,"ECCENTRICITY":0.000217,"INCLINATION":0.0147,"RA_OF_ASC_NODE":6.8795,"ARG_OF_PERICENTER":56.2887,"MEAN_ANOMALY":95.1054,"EPHEMERIS_TYPE":0,"CLASSIFICATION_TYPE":"U","NORAD_CAT_ID":32767,"ELEMENT_SET_NO":999,"REV_AT_EPOCH":6608,"BSTAR":0,"MEAN_MOTION_DOT":-3.37e-6,"MEAN_MOTION_DDOT":0},{"OBJECT_NAME":"STAR ONE C2","OBJECT_ID":"2008-018B","EPOCH":"2026-04-27T10:49:51.074976","MEAN_MOTION":1.00272946,"ECCENTRICITY":0.0002809,"INCLINATION":1.1132,"RA_OF_ASC_NODE":82.8526,"ARG_OF_PERICENTER":315.152,"MEAN_ANOMALY":274.9078,"EPHEMERIS_TYPE":0,"CLASSIFICATION_TYPE":"U","NORAD_CAT_ID":32768,"ELEMENT_SET_NO":999,"REV_AT_EPOCH":6614,"BSTAR":0,"MEAN_MOTION_DOT":-2.85e-6,"MEAN_MOTION_DDOT":0},{"OBJECT_NAME":"AMOS-3","OBJECT_ID":"2008-022A","EPOCH":"2026-04-27T05:20:38.796864","MEAN_MOTION":1.00453707,"ECCENTRICITY":1.66e-5,"INCLINATION":0.3252,"RA_OF_ASC_NODE":86.6765,"ARG_OF_PERICENTER":104.0383,"MEAN_ANOMALY":108.2525,"EPHEMERIS_TYPE":0,"CLASSIFICATION_TYPE":"U","NORAD_CAT_ID":32794,"ELEMENT_SET_NO":999,"REV_AT_EPOCH":8182,"BSTAR":0,"MEAN_MOTION_DOT":4.4e-7,"MEAN_MOTION_DDOT":0},{"OBJECT_NAME":"GALAXY 18 (G-18)","OBJECT_ID":"2008-024A","EPOCH":"2026-04-27T11:54:57.887712","MEAN_MOTION":1.00272101,"ECCENTRICITY":0.0003257,"INCLINATION":0.015,"RA_OF_ASC_NODE":260.8317,"ARG_OF_PERICENTER":143.3182,"MEAN_ANOMALY":227.0716,"EPHEMERIS_TYPE":0,"CLASSIFICATION_TYPE":"U","NORAD_CAT_ID":32951,"ELEMENT_SET_NO":999,"REV_AT_EPOCH":4534,"BSTAR":0,"MEAN_MOTION_DOT":1.6e-7,"MEAN_MOTION_DDOT":0},{"OBJECT_NAME":"ZHONGXING-9","OBJECT_ID":"2008-028A","EPOCH":"2026-04-27T11:25:02.474112","MEAN_MOTION":1.00272643,"ECCENTRICITY":0.000638,"INCLINATION":0.6406,"RA_OF_ASC_NODE":85.8781,"ARG_OF_PERICENTER":282.7454,"MEAN_ANOMALY":110.4872,"EPHEMERIS_TYPE":0,"CLASSIFICATION_TYPE":"U","NORAD_CAT_ID":33051,"ELEMENT_SET_NO":999,"REV_AT_EPOCH":6553,"BSTAR":0,"MEAN_MOTION_DOT":-2.58e-6,"MEAN_MOTION_DDOT":0},{"OBJECT_NAME":"SKYNET 5C","OBJECT_ID":"2008-030A","EPOCH":"2026-04-27T10:22:38.661024","MEAN_MOTION":1.00271627,"ECCENTRICITY":0.00038,"INCLINATION":3.6612,"RA_OF_ASC_NODE":77.6207,"ARG_OF_PERICENTER":320.653,"MEAN_ANOMALY":315.0179,"EPHEMERIS_TYPE":0,"CLASSIFICATION_TYPE":"U","NORAD_CAT_ID":33055,"ELEMENT_SET_NO":999,"REV_AT_EPOCH":6544,"BSTAR":0,"MEAN_MOTION_DOT":-1.46e-6,"MEAN_MOTION_DDOT":0},{"OBJECT_NAME":"TURKSAT 3A","OBJECT_ID":"2008-030B","EPOCH":"2026-04-27T04:48:38.757312","MEAN_MOTION":1.00274703,"ECCENTRICITY":0.00050892,"INCLINATION":0.0754,"RA_OF_ASC_NODE":78.652,"ARG_OF_PERICENTER":319.0773,"MEAN_ANOMALY":291.6177,"EPHEMERIS_TYPE":0,"CLASSIFICATION_TYPE":"U","NORAD_CAT_ID":33056,"ELEMENT_SET_NO":999,"REV_AT_EPOCH":5184,"BSTAR":0,"MEAN_MOTION_DOT":1.36e-6,"MEAN_MOTION_DDOT":0},{"OBJECT_NAME":"INTELSAT 25 (IS-25)","OBJECT_ID":"2008-034A","EPOCH":"2026-04-23T01:58:38.717184","MEAN_MOTION":0.99965107,"ECCENTRICITY":0.00021655,"INCLINATION":2.567,"RA_OF_ASC_NODE":80.9425,"ARG_OF_PERICENTER":274.6153,"MEAN_ANOMALY":207.906,"EPHEMERIS_TYPE":0,"CLASSIFICATION_TYPE":"U","NORAD_CAT_ID":33153,"ELEMENT_SET_NO":999,"REV_AT_EPOCH":6514,"BSTAR":0,"MEAN_MOTION_DOT":-2.78e-6,"MEAN_MOTION_DDOT":0},{"OBJECT_NAME":"ECHOSTAR 11","OBJECT_ID":"2008-035A","EPOCH":"2026-04-27T11:44:07.071072","MEAN_MOTION":1.002714,"ECCENTRICITY":0.0002457,"INCLINATION":0.8755,"RA_OF_ASC_NODE":84.6688,"ARG_OF_PERICENTER":297.6788,"MEAN_ANOMALY":259.359,"EPHEMERIS_TYPE":0,"CLASSIFICATION_TYPE":"U","NORAD_CAT_ID":33207,"ELEMENT_SET_NO":999,"REV_AT_EPOCH":5070,"BSTAR":0,"MEAN_MOTION_DOT":-6.6e-7,"MEAN_MOTION_DDOT":0},{"OBJECT_NAME":"SUPERBIRD-C2","OBJECT_ID":"2008-038A","EPOCH":"2026-04-27T11:21:22.053024","MEAN_MOTION":1.00272113,"ECCENTRICITY":0.000455,"INCLINATION":2.2321,"RA_OF_ASC_NODE":81.8629,"ARG_OF_PERICENTER":2.4262,"MEAN_ANOMALY":77.5312,"EPHEMERIS_TYPE":0,"CLASSIFICATION_TYPE":"U","NORAD_CAT_ID":33274,"ELEMENT_SET_NO":999,"REV_AT_EPOCH":10522,"BSTAR":0,"MEAN_MOTION_DOT":-3.13e-6,"MEAN_MOTION_DDOT":0},{"OBJECT_NAME":"INMARSAT 4-F3","OBJECT_ID":"2008-039A","EPOCH":"2026-04-27T11:12:14.709024","MEAN_MOTION":1.00272774,"ECCENTRICITY":0.0003133,"INCLINATION":4.2508,"RA_OF_ASC_NODE":31.4167,"ARG_OF_PERICENTER":12.6002,"MEAN_ANOMALY":241.5048,"EPHEMERIS_TYPE":0,"CLASSIFICATION_TYPE":"U","NORAD_CAT_ID":33278,"ELEMENT_SET_NO":999,"REV_AT_EPOCH":4603,"BSTAR":0,"MEAN_MOTION_DOT":-1.48e-6,"MEAN_MOTION_DDOT":0},{"OBJECT_NAME":"NIMIQ 4","OBJECT_ID":"2008-044A","EPOCH":"2026-04-27T11:26:16.741824","MEAN_MOTION":1.00271123,"ECCENTRICITY":0.000221,"INCLINATION":0.0113,"RA_OF_ASC_NODE":150.3537,"ARG_OF_PERICENTER":242.4838,"MEAN_ANOMALY":272.2137,"EPHEMERIS_TYPE":0,"CLASSIFICATION_TYPE":"U","NORAD_CAT_ID":33373,"ELEMENT_SET_NO":999,"REV_AT_EPOCH":6447,"BSTAR":0,"MEAN_MOTION_DOT":-2.3e-6,"MEAN_MOTION_DDOT":0},{"OBJECT_NAME":"GALAXY 19 (G-19)","OBJECT_ID":"2008-045A","EPOCH":"2026-04-27T11:37:11.945856","MEAN_MOTION":1.00272016,"ECCENTRICITY":0.0003366,"INCLINATION":0.0178,"RA_OF_ASC_NODE":251.2794,"ARG_OF_PERICENTER":161.9229,"MEAN_ANOMALY":239.5612,"EPHEMERIS_TYPE":0,"CLASSIFICATION_TYPE":"U","NORAD_CAT_ID":33376,"ELEMENT_SET_NO":999,"REV_AT_EPOCH":6439,"BSTAR":0,"MEAN_MOTION_DOT":-1.48e-6,"MEAN_MOTION_DDOT":0},{"OBJECT_NAME":"ASTRA 1M","OBJECT_ID":"2008-057A","EPOCH":"2026-04-27T05:04:38.648352","MEAN_MOTION":1.00274738,"ECCENTRICITY":0.00039066,"INCLINATION":0.1662,"RA_OF_ASC_NODE":79.5439,"ARG_OF_PERICENTER":2.5412,"MEAN_ANOMALY":228.6914,"EPHEMERIS_TYPE":0,"CLASSIFICATION_TYPE":"U","NORAD_CAT_ID":33436,"ELEMENT_SET_NO":999,"REV_AT_EPOCH":4522,"BSTAR":0,"MEAN_MOTION_DOT":1.11e-6,"MEAN_MOTION_DDOT":0},{"OBJECT_NAME":"EUTELSAT HOTBIRD 13C","OBJECT_ID":"2008-065A","EPOCH":"2026-04-27T01:18:27.194688","MEAN_MOTION":1.00269987,"ECCENTRICITY":0.00042304,"INCLINATION":2.821,"RA_OF_ASC_NODE":79.7675,"ARG_OF_PERICENTER":321.656,"MEAN_ANOMALY":142.951,"EPHEMERIS_TYPE":0,"CLASSIFICATION_TYPE":"U","NORAD_CAT_ID":33459,"ELEMENT_SET_NO":999,"REV_AT_EPOCH":4683,"BSTAR":0,"MEAN_MOTION_DOT":-2.91e-6,"MEAN_MOTION_DDOT":0}]
