DIRECTV 11              
1 32729U 08013A   26117.49269373 -.00000135  00000+0  00000+0 0  9993
2 32729   0.0108 120.4926 0000228 236.3435 296.8178  1.00270676 45083
ICO G1                  
1 32763U 08016A   26117.48302189 -.00000179  00000+0  00000+0 0  9994
2 32763   5.5209  36.2443 0002409 347.9931 272.2782  1.00272481 66037
VINASAT-1               
1 32767U 08018A   26117.47461758 -.00000337  00000+0  00000+0 0  9993
2 32767   0.0147   6.8795 0002170  56.2887  95.1054  1.00271366 66080
STAR ONE C2             
1 32768U 08018B   26117.45128559 -.00000285  00000+0  00000+0 0  9993
2 32768   1.1132  82.8526 0002809 315.1520 274.9078  1.00272946 66148
AMOS-3                  
1 32794U 08022A   26117.22267126  .00000044  00000+0  00000+0 0  9998
2 32794   0.3252  86.6765 0000166 104.0383 108.2525  1.00453707 81828
GALAXY 18 (G-18)        
1 32951U 08024A   26117.49650333  .00000016  00000+0  00000+0 0  9999
2 32951   0.0150 260.8317 0003257 143.3182 227.0716  1.00272101 45349
ZHONGXING-9             
1 33051U 08028A   26117.47572308 -.00000258  00000+0  00000+0 0  9997
2 33051   0.6406  85.8781 0006380 282.7454 110.4872  1.00272643 65533
SKYNET 5C               
1 33055U 08030A   26117.43239191 -.00000146  00000+0  00000+0 0  9996
2 33055   3.6612  77.6207 0003800 320.6530 315.0179  1.00271627 65446
TURKSAT 3A              
1 33056U 08030B   26117.20044858  .00000136  00000+0  00000+0 0  9994
2 33056   0.0754  78.6520 0005089 319.0773 291.6177  1.00274703 51840
INTELSAT 25 (IS-25)     
1 33153U 08034A   26113.08239256 -.00000278  00000+0  00000+0 0  9994
2 33153   2.5670  80.9425 0002165 274.6153 207.9060  0.99965107 65143
ECHOSTAR 11             
1 33207U 08035A   26117.48897073 -.00000066  00000+0  00000+0 0  9995
2 33207   0.8755  84.6688 0002457 297.6788 259.3590  1.00271400 50707
SUPERBIRD-C2            
1 33274U 08038A   26117.47317191 -.00000313  00000+0  00000+0 0  9994
2 33274   2.2321  81.8629 0004550   2.4262  77.5312  1.00272113105227
INMARSAT 4-F3           
1 33278U 08039A   26117.46683691 -.00000148  00000+0  00000+0 0  9995
2 33278   4.2508  31.4167 0003133  12.6002 241.5048  1.00272774 46034
NIMIQ 4                 
1 33373U 08044A   26117.47658266 -.00000230  00000+0  00000+0 0  9990
2 33373   0.0113 150.3537 0002210 242.4838 272.2137  1.00271123 64478
GALAXY 19 (G-19)        
1 33376U 08045A   26117.48416604 -.00000148  00000+0  00000+0 0  9991
2 33376   0.0178 251.2794 0003366 161.9229 239.5612  1.00272016 64397
ASTRA 1M                
1 33436U 08057A   26117.21155843  .00000111  00000+0  00000+0 0  9996
2 33436   0.1662  79.5439 0003906   2.5412 228.6914  1.00274738 45222
EUTELSAT HOTBIRD 13C    
1 33459U 08065A   26117.05448142 -.00000291  00000+0  00000+0 0  9999
2 33459   2.8210  79.7675 0004230 321.6560 142.9510  1.00269987 46837
